NORAD_CAT_ID,OBJECT_NAME,OBJECT_TYPE,EPOCH,MEAN_MOTION,ECCENTRICITY,INCLINATION,RA_OF_ASC_NODE,ARG_OF_PERICENTER,MEAN_ANOMALY,BSTAR,MEAN_MOTION_DOT,MEAN_MOTION_DDOT,TLE_LINE0,TLE_LINE1,TLE_LINE2,SEMIMAJOR_AXIS,PERIOD,APOGEE,PERIGEE,DECAYED
53152.0,STARLINK-4045,PAYLOAD,2023-09-28 19:48:57,15.0883222,0.0001459,53.2169,212.3409,88.3478,271.7681,0.00018917,2.723e-05,0.0,0 STARLINK-4045,1 53152U 22083W   23271.82567014  .00002723  00000-0  18917-3 0  9992,2 53152  53.2169 212.3409 0001459  88.3478 271.7681 15.08832220 66568,6917.904,95.438,540.778,538.76,0.0
53152.0,STARLINK-4045,PAYLOAD,2023-09-29 05:21:16,15.08846406,0.0001318,53.2164,210.5582,85.2552,274.8591,0.00038895,5.909e-05,0.0,0 STARLINK-4045,1 53152U 22083W   23272.22310458  .00005909  00000-0  38895-3 0  9991,2 53152  53.2164 210.5582 0001318  85.2552 274.8591 15.08846406 67250,6917.861,95.437,540.638,538.814,0.0
53152.0,STARLINK-4045,PAYLOAD,2023-09-30 02:01:16,15.08854462,0.0001531,53.2165,206.6903,84.1086,276.008,0.00037007,5.609e-05,0.0,0 STARLINK-4045,1 53152U 22083W   23273.08422241  .00005609  00000-0  37007-3 0  9991,2 53152  53.2165 206.6903 0001531  84.1086 276.0080 15.08854462 66753,6917.836,95.437,540.76,538.642,0.0
53152.0,STARLINK-4045,PAYLOAD,2023-09-30 13:08:58,15.08846743,0.0001561,53.2163,204.6124,78.1237,281.993,0.00015113,2.118e-05,0.0,0 STARLINK-4045,1 53152U 22083W   23273.54790327  .00002118  00000-0  15113-3 0  9991,2 53152  53.2163 204.6124 0001561  78.1237 281.9930 15.08846743 67458,6917.86,95.437,540.805,538.645,0.0
53152.0,STARLINK-4045,PAYLOAD,2023-10-01 01:52:04,15.08836919,0.0001499,53.2175,202.23,99.6326,260.4836,-9.1509e-05,-1.744e-05,0.0,0 STARLINK-4045,1 53152U 22083W   23274.07782618 -.00001744  00000-0 -91509-4 0  9994,2 53152  53.2175 202.2300 0001499  99.6326 260.4836 15.08836919 67538,6917.89,95.438,540.792,538.718,0.0
53152.0,STARLINK-4045,PAYLOAD,2023-10-01 05:02:50,15.08842155,0.000175,53.2169,201.6339,105.237,254.8816,4.3029e-05,3.97e-06,0.0,0 STARLINK-4045,1 53152U 22083W   23274.21030651  .00000397  00000-0  43029-4 0  9998,2 53152  53.2169 201.6339 0001750 105.2370 254.8816 15.08842155 66925,6917.874,95.437,540.949,538.528,0.0
53152.0,STARLINK-4045,PAYLOAD,2023-10-01 19:21:18,15.08843169,0.000198,53.2161,198.9576,105.8158,254.3053,0.00017108,2.436e-05,0.0,0 STARLINK-4045,1 53152U 22083W   23274.80646743  .00002436  00000-0  17108-3 0  9992,2 53152  53.2161 198.9576 0001980 105.8158 254.3053 15.08843169 67018,6917.871,95.437,541.105,538.366,0.0
53152.0,STARLINK-4045,PAYLOAD,2023-10-02 01:42:51,15.08854801,0.0001584,53.2168,197.7706,88.874,271.2434,0.0005257,8.092e-05,0.0,0 STARLINK-4045,1 53152U 22083W   23275.07142451  .00008092  00000-0  52570-3 0  9995,2 53152  53.2168 197.7706 0001584  88.8740 271.2434 15.08854801 67683,6917.835,95.437,540.796,538.604,0.0
53152.0,STARLINK-4045,PAYLOAD,2023-10-02 19:12:05,15.08842614,0.0001884,53.216,194.4977,99.1052,261.0153,0.00016977,2.415e-05,0.0,0 STARLINK-4045,1 53152U 22083W   23275.80006817  .00002415  00000-0  16977-3 0  9995,2 53152  53.2160 194.4977 0001884  99.1052 261.0153 15.08842614 67799,6917.872,95.437,541.041,538.434,0.0
53152.0,STARLINK-4045,PAYLOAD,2023-10-03 11:05:57,15.08846439,0.0001243,53.2161,191.5239,76.9499,283.1632,0.00038276,5.81e-05,0.0,0 STARLINK-4045,1 53152U 22083W   23276.46246706  .00005810  00000-0  38276-3 0  9999,2 53152  53.2161 191.5239 0001243  76.9499 283.1632 15.08846439 67264,6917.861,95.437,540.586,538.866,0.0
53152.0,STARLINK-4045,PAYLOAD,2023-10-03 19:02:53,15.08840073,0.0002186,53.2169,190.04,81.6257,278.4983,0.00024979,3.689e-05,0.0,0 STARLINK-4045,1 53152U 22083W   23276.79367088  .00003689  00000-0  24979-3 0  9999,2 53152  53.2169 190.0400 0002186  81.6257 278.4983 15.08840073 67947,6917.88,95.438,541.257,538.233,0.0
53152.0,STARLINK-4045,PAYLOAD,2023-10-03 22:13:39,15.08836456,0.0001556,53.2173,189.4501,104.9107,255.2057,7.0477e-05,8.34e-06,0.0,0 STARLINK-4045,1 53152U 22083W   23276.92615223  .00000834  00000-0  70477-4 0  9995,2 53152  53.2173 189.4501 0001556 104.9107 255.2057 15.08836456 67337,6917.891,95.438,540.833,538.68,0.0
53152.0,STARLINK-4045,PAYLOAD,2023-10-04 10:56:44,15.08846865,0.0001062,53.2158,187.0672,78.8597,281.2514,0.00065117,0.00010093,0.0,0 STARLINK-4045,1 53152U 22083W   23277.45607005  .00010093  00000-0  65117-3 0  9995,2 53152  53.2158 187.0672 0001062  78.8597 281.2514 15.08846865 67418,6917.859,95.437,540.459,538.99,0.0
53152.0,STARLINK-4045,PAYLOAD,2023-10-05 02:50:35,15.08859664,0.0001488,53.2165,184.0972,91.7792,268.3371,0.00056926,8.788e-05,0.0,0 STARLINK-4045,1 53152U 22083W   23278.11846503  .00008788  00000-0  56926-3 0  9993,2 53152  53.2165 184.0972 0001488  91.7792 268.3371 15.08859664 68148,6917.82,95.436,540.715,538.656,0.0
53152.0,STARLINK-4045,PAYLOAD,2023-10-05 10:47:31,15.08845388,0.0001394,53.2162,182.6038,77.6348,282.48,0.00016854,2.396e-05,0.0,0 STARLINK-4045,1 53152U 22083W   23278.44966682  .00002396  00000-0  16854-3 0  9995,2 53152  53.2162 182.6038 0001394  77.6348 282.4800 15.08845388 68195,6917.864,95.437,540.693,538.765,0.0
53152.0,STARLINK-4045,PAYLOAD,2023-10-05 21:55:13,15.08840624,0.0001426,53.2161,180.5283,95.5273,264.5882,6.8393e-05,8.01e-06,0.0,0 STARLINK-4045,1 53152U 22083W   23278.91334942  .00000801  00000-0  68393-4 0  9990,2 53152  53.2161 180.5283 0001426  95.5273 264.5882 15.08840624 67632,6917.878,95.438,540.73,538.757,0.0
53152.0,STARLINK-4045,PAYLOAD,2023-10-06 10:38:19,15.08827966,0.0002363,53.2159,178.1486,74.1829,285.9423,-2.8386e-05,-7.4e-06,0.0,0 STARLINK-4045,1 53152U 22083W   23279.44327661 -.00000740  00000-0 -28386-4 0  9991,2 53152  53.2159 178.1486 0002363  74.1829 285.9423 15.08827966 68349,6917.917,95.438,541.417,538.147,0.0
53152.0,STARLINK-4045,PAYLOAD,2023-10-06 21:46:01,15.08831551,0.0002163,53.2153,176.065,80.4576,279.6661,0.00039247,5.962e-05,0.0,0 STARLINK-4045,1 53152U 22083W   23279.90695995  .00005962  00000-0  39247-3 0  9996,2 53152  53.2153 176.0650 0002163  80.4576 279.6661 15.08831551 67786,6917.906,95.438,541.268,538.275,0.0
53152.0,STARLINK-4045,PAYLOAD,2023-10-07 02:32:10,15.08839903,0.0001645,53.2154,175.1721,79.3059,280.8119,0.00064805,0.00010041,0.0,0 STARLINK-4045,1 53152U 22083W   23280.10567825  .00010041  00000-0  64805-3 0  9992,2 53152  53.2154 175.1721 0001645  79.3059 280.8119 15.08839903 68448,6917.881,95.438,540.884,538.608,0.0
53152.0,STARLINK-4045,PAYLOAD,2023-10-07 10:29:06,15.08841861,0.0001575,53.2151,173.6881,79.594,280.5229,0.00076036,0.00011834,0.0,0 STARLINK-4045,1 53152U 22083W   23280.43687944  .00011834  00000-0  76036-3 0  9993,2 53152  53.2151 173.6881 0001575  79.5940 280.5229 15.08841861 67868,6917.875,95.437,540.829,538.65,0.0
53152.0,STARLINK-4045,PAYLOAD,2023-10-07 21:36:48,15.08850107,0.0001398,53.2157,171.6055,86.678,273.4372,0.00064282,9.96e-05,0.0,0 STARLINK-4045,1 53152U 22083W   23280.90055669  .00009960  00000-0  64282-3 0  9995,2 53152  53.2157 171.6055 0001398  86.6780 273.4372 15.08850107 67930,6917.849,95.437,540.682,538.747,0.0
53152.0,STARLINK-4045,PAYLOAD,2023-10-08 10:19:53,15.08845099,0.0001417,53.2157,169.2263,92.4024,267.713,0.00019752,2.857e-05,0.0,0 STARLINK-4045,1 53152U 22083W   23281.43047504  .00002857  00000-0  19752-3 0  9993,2 53152  53.2157 169.2263 0001417  92.4024 267.7130 15.08845099 68643,6917.865,95.437,540.71,538.75,0.0
53152.0,STARLINK-4045,PAYLOAD,2023-10-08 21:27:34,15.08862606,0.0001251,53.2162,167.1425,107.0265,253.0865,0.0008425,0.00013154,0.0,0 STARLINK-4045,1 53152U 22083W   23281.89414893  .00013154  00000-0  84250-3 0  9999,2 53152  53.2162 167.1425 0001251 107.0265 253.0865 15.08862606 68086,6917.811,95.436,540.542,538.811,0.0
53152.0,STARLINK-4045,PAYLOAD,2023-10-09 02:13:43,15.08866233,0.0001262,53.2171,166.252,98.2637,261.8499,0.0014408,0.00022733,0.0,0 STARLINK-4045,1 53152U 22083W   23282.09286745  .00022733  00000-0  14408-2 0  9995,2 53152  53.2171 166.2520 0001262  98.2637 261.8499 15.08866233 68741,6917.8,95.436,540.538,538.792,0.0
53152.0,STARLINK-4045,PAYLOAD,2023-10-09 21:18:22,15.08842137,9.76e-05,53.2161,162.683,88.879,271.2314,0.0013614,0.00021446,0.0,0 STARLINK-4045,1 53152U 22083W   23282.88775537  .00021446  00000-0  13614-2 0  9992,2 53152  53.2161 162.6830 0000976  88.8790 271.2314 15.08842137 68861,6917.874,95.437,540.414,539.064,0.0
53152.0,STARLINK-4045,PAYLOAD,2023-10-09 22:53:45,15.0884343,9.73e-05,53.2163,162.3857,82.3063,277.804,0.0014331,0.00022595,0.0,0 STARLINK-4045,1 53152U 22083W   23282.95399552  .00022595  00000-0  14331-2 0  9992,2 53152  53.2163 162.3857 0000973  82.3063 277.8040 15.08843430 68245,6917.87,95.437,540.408,539.062,0.0
53152.0,STARLINK-4045,PAYLOAD,2023-10-10 19:33:46,15.0884522,0.0001069,53.2167,158.5193,88.8912,271.2203,0.001382,0.00021778,0.0,0 STARLINK-4045,1 53152U 22083W   23283.81511770  .00021778  00000-0  13820-2 0  9990,2 53152  53.2167 158.5193 0001069  88.8912 271.2203 15.08845220 69003,6917.864,95.437,540.469,538.99,0.0
53152.0,STARLINK-4045,PAYLOAD,2023-10-11 08:16:50,15.08854944,0.0001127,53.2167,156.141,67.2505,292.8606,0.00070653,0.00010979,0.0,0 STARLINK-4045,1 53152U 22083W   23284.34503381  .00010979  00000-0  70653-3 0  9997,2 53152  53.2167 156.1410 0001127  67.2505 292.8606 15.08854944 69080,6917.835,95.437,540.479,538.92,0.0
53152.0,STARLINK-4045,PAYLOAD,2023-10-11 20:59:56,15.0883478,0.0001262,53.2158,153.7645,86.0117,274.1019,0.00028348,4.226e-05,0.0,0 STARLINK-4045,1 53152U 22083W   23284.87496031  .00004226  00000-0  28348-3 0  9990,2 53152  53.2158 153.7645 0001262  86.0117 274.1019 15.08834780 69167,6917.896,95.438,540.634,538.888,0.0
53152.0,STARLINK-4045,PAYLOAD,2023-10-12 09:43:01,15.08845096,0.0001199,53.2151,151.3854,87.6842,272.4288,0.00085081,0.0001328,0.0,0 STARLINK-4045,1 53152U 22083W   23285.40488115  .00013280  00000-0  85081-3 0  9991,2 53152  53.2151 151.3854 0001199  87.6842 272.4288 15.08845096 68617,6917.865,95.437,540.559,538.9,0.0
